IRIDIUM 126             
1 42809U 17039G   23323.18063892  .00000259  00000+0  85450-4 0  9994
2 42809  86.4005  26.8970 0001944 100.5371 259.6044 14.34219161335086
IRIDIUM 124             
1 42810U 17039H   23323.09421851  .00000176  00000+0  46445-4 0  9998
2 42810  86.4467 323.7013 0002484  90.0489 270.0997 14.43285960339370
IRIDIUM 128             
1 42811U 17039J   23323.31090922  .00000346  00000+0  11651-3 0  9994
2 42811  86.3987  58.3598 0002096  99.4256 260.7176 14.34217071335122
IRIDIUM 121             
1 42812U 17039K   23323.47874338  .00000286  00000+0  95075-4 0  9999
2 42812  86.4006  26.7942 0002009  94.4524 265.6901 14.34218840335119
IRIDIUM 133             
1 42955U 17061A   23322.71472208  .00000348  00000+0  11718-3 0  9998
2 42955  86.3987  58.7036 0001871  99.1388 261.0020 14.34216488319838
IRIDIUM 100             
1 42956U 17061B   23322.70837205  .00000347  00000+0  11683-3 0  9990
2 42956  86.3985  58.6469 0002125  97.8692 262.2745 14.34219008319830
IRIDIUM 122             
1 42957U 17061C   23323.51387826  .00000339  00000+0  11398-3 0  9994
2 42957  86.3986  58.3081 0002206 102.1504 257.9939 14.34220083319955
IRIDIUM 129             
1 42958U 17061D   23322.56249536  .00000355  00000+0  11955-3 0  9991
2 42958  86.3986  58.7629 0002069 102.0601 258.0826 14.34218052319839
